[{"OBJECT_NAME":"KUIPER-00165","OBJECT_ID":"2025-217S","EPOCH":"2026-03-09T22:15:48.938400","MEAN_MOTION":14.79921301,"ECCENTRICITY":9.006e-5,"INCLINATION":51.9014,"RA_OF_ASC_NODE":34.5445,"ARG_OF_PERICENTER":96.0158,"MEAN_ANOMALY":264.0907,"EPHEMERIS_TYPE":0,"CLASSIFICATION_TYPE":"U","NORAD_CAT_ID":65778,"ELEMENT_SET_NO":999,"REV_AT_EPOCH":2501,"BSTAR":-0.00091455718,"MEAN_MOTION_DOT":-7.184e-5,"MEAN_MOTION_DDOT":0},{"OBJECT_NAME":"CZ-6A DEB","OBJECT_ID":"2022-151HF","EPOCH":"2026-03-09T15:40:31.564704","MEAN_MOTION":14.6307504,"ECCENTRICITY":0.00824297,"INCLINATION":98.632,"RA_OF_ASC_NODE":122.0817,"ARG_OF_PERICENTER":262.3515,"MEAN_ANOMALY":96.8318,"EPHEMERIS_TYPE":0,"CLASSIFICATION_TYPE":"U","NORAD_CAT_ID":54479,"ELEMENT_SET_NO":999,"REV_AT_EPOCH":17513,"BSTAR":0.001762624,"MEAN_MOTION_DOT":9.458e-5,"MEAN_MOTION_DDOT":0}]
